EROS C3                 
1 54880U 22179A   26186.33229855  .00006098  00000+0  34335-3 0  9999
2 54880 139.3350 108.5556 0005983 101.7889 258.3590 15.10973301195074
