{"fetched_at":"2026-07-05T17:36:23.168Z","source":"https://celestrak.org/NORAD/elements/gp.php?NAME=EROS&FORMAT=JSON","constellation":"eros","records":[{"OBJECT_NAME":"EROS C3","OBJECT_ID":"2022-179A","EPOCH":"2026-07-05T07:58:30.594720","CLASSIFICATION_TYPE":"U","MEAN_MOTION":15.10973301,"ECCENTRICITY":0.00059834,"INCLINATION":139.335,"RA_OF_ASC_NODE":108.5556,"ARG_OF_PERICENTER":101.7889,"MEAN_ANOMALY":258.359,"EPHEMERIS_TYPE":0,"NORAD_CAT_ID":54880,"ELEMENT_SET_NO":999,"REV_AT_EPOCH":19507,"BSTAR":0.00034334729,"MEAN_MOTION_DOT":0.00006098,"MEAN_MOTION_DDOT":0}]}
